0 ATS 1
1 02608U 66110A   13283.35878629 -.00000172  00000-0  10000-3 0  5097
2 02608 005.2749 304.1012 0008401 199.2935 160.4961 01.00290395 88324
0 ATS 1
1 02608U 66110A   13286.35000202 -.00000181  00000-0  10000-3 0  5106
2 02608 005.2700 304.0914 0008392 200.3789 159.3995 01.00290038 88352
0 ATS 1
1 02608U 66110A   13288.34414296 -.00000182  00000-0  10000-3 0  5122
2 02608 005.2666 304.0853 0008387 200.7392 159.0277 01.00289799 88377
0 ATS 1
1 02608U 66110A   13288.89091828 -.00000181  00000-0  10000-3 0  5112
2 02608 005.2653 304.0947 0008439 201.2655 355.8960 01.00289085 88376
0 ATS 1
1 02608U 66110A   13289.34113985 -.00000181  00000-0  10000-3 0  5134
2 02608 005.2650 304.0821 0008400 200.6747 159.0607 01.00289697 88389
0 ATS 1
1 02608U 66110A   13290.33820712  .00000000  00000-0  10000-3 0  5148
2 02608 005.2632 304.0811 0008350 201.2629 158.4692 01.00286082 88391
0 ATS 1
1 02608U 66110A   13292.33237931 -.00000172  00000-0  10000-3 0  5146
2 02608 005.2600 304.0715 0008468 200.8180 158.9122 01.00289410 88410
0 ATS 1
1 02608U 66110A   13295.32375597 -.00000163  00000-0  10000-3 0  5150
2 02608 005.2550 304.0612 0008366 201.7807 157.9873 01.00289091 88443
